MEASAT-3A               
1 35362U 09032A   17345.52229698 -.00000249  00000-0  00000-0 0  9992
2 35362   0.0437 197.0003 0003016  48.1522 114.8212  1.00272398 31068
